NORAD_CAT_ID,OBJECT_NAME,OBJECT_TYPE,EPOCH,MEAN_MOTION,ECCENTRICITY,INCLINATION,RA_OF_ASC_NODE,ARG_OF_PERICENTER,MEAN_ANOMALY,BSTAR,MEAN_MOTION_DOT,MEAN_MOTION_DDOT,TLE_LINE0,TLE_LINE1,TLE_LINE2,SEMIMAJOR_AXIS,PERIOD,APOGEE,PERIGEE,DECAYED
51750.0,STARLINK-3505,PAYLOAD,2023-02-07 05:19:58,15.08869462,0.0001419,53.2166,326.0368,103.2865,256.8285,0.0020307,0.00032205,0.0,0 STARLINK-3505,1 51750U 22016AN  23038.22220768  .00032205  00000-0  20307-2 0  9990,2 51750  53.2166 326.0368 0001419 103.2865 256.8285 15.08869462 54768,6917.79,95.436,540.637,538.674,0.0
51750.0,STARLINK-3505,PAYLOAD,2023-02-07 22:49:14,15.08841457,0.0001401,53.2165,322.7662,95.2068,264.9084,0.0015673,0.00024745,0.0,0 STARLINK-3505,1 51750U 22016AN  23038.95085846  .00024745  00000-0  15673-2 0  9996,2 51750  53.2165 322.7662 0001401  95.2068 264.9084 15.08841457 54876,6917.876,95.437,540.71,538.772,0.0
51750.0,STARLINK-3505,PAYLOAD,2023-02-08 06:46:09,15.08857175,0.0001371,53.2157,321.2789,74.9622,285.1521,0.0017285,0.00027341,0.0,0 STARLINK-3505,1 51750U 22016AN  23039.28205708  .00027341  00000-0  17285-2 0  9990,2 51750  53.2157 321.2789 0001371  74.9622 285.1521 15.08857175 53804,6917.828,95.436,540.641,538.744,0.0
51750.0,STARLINK-3505,PAYLOAD,2023-02-09 05:01:34,15.08849004,0.0001163,53.2156,317.1164,87.9143,272.1982,0.0019743,0.00031281,0.0,0 STARLINK-3505,1 51750U 22016AN  23040.20942691  .00031281  00000-0  19743-2 0  9992,2 51750  53.2156 317.1164 0001163  87.9143 272.1982 15.08849004 55064,6917.853,95.437,540.522,538.913,0.0
51750.0,STARLINK-3505,PAYLOAD,2023-02-09 22:30:47,15.08906466,0.0001321,53.2161,313.8443,68.0422,292.071,0.0023013,0.00036594,0.0,0 STARLINK-3505,1 51750U 22016AN  23040.93804755  .00036594  00000-0  23013-2 0  9997,2 51750  53.2161 313.8443 0001321  68.0422 292.0710 15.08906466 55177,6917.677,95.433,540.456,538.628,0.0
51750.0,STARLINK-3505,PAYLOAD,2023-02-10 03:16:59,15.08865471,0.0001062,53.2145,312.952,90.4961,269.6153,0.0026338,0.00041908,0.0,0 STARLINK-3505,1 51750U 22016AN  23041.13679484  .00041908  00000-0  26338-2 0  9997,2 51750  53.2145 312.9520 0001062  90.4961 269.6153 15.08865471 54084,6917.803,95.436,540.402,538.933,0.0
51750.0,STARLINK-3505,PAYLOAD,2023-02-10 11:13:54,15.08867304,0.000119,53.2141,311.4651,108.7282,251.3839,0.0024318,0.00038656,0.0,0 STARLINK-3505,1 51750U 22016AN  23041.46799364  .00038656  00000-0  24318-2 0  9995,2 51750  53.2141 311.4651 0001190 108.7282 251.3839 15.08867304 55256,6917.797,95.436,540.485,538.839,0.0
51750.0,STARLINK-3505,PAYLOAD,2023-02-10 23:56:59,15.08863655,0.0001118,53.2135,309.0847,122.8071,237.3029,0.0012127,0.00019077,0.0,0 STARLINK-3505,1 51750U 22016AN  23041.99790772  .00019077  00000-0  12127-2 0  9998,2 51750  53.2135 309.0847 0001118 122.8071 237.3029 15.08863655 55331,6917.808,95.436,540.446,538.9,0.0
51750.0,STARLINK-3505,PAYLOAD,2023-02-11 01:32:22,15.08874393,0.0001235,53.2143,308.7873,120.1032,240.0083,0.0018,0.00028502,0.0,0 STARLINK-3505,1 51750U 22016AN  23042.06414601  .00028502  00000-0  18000-2 0  9990,2 51750  53.2143 308.7873 0001235 120.1032 240.0083 15.08874393 55346,6917.775,95.435,540.495,538.786,0.0
51750.0,STARLINK-3505,PAYLOAD,2023-02-11 17:26:13,15.08843504,0.0001245,53.2152,305.8146,110.6627,249.4499,0.0010312,0.00016163,0.0,0 STARLINK-3505,1 51750U 22016AN  23042.72655008  .00016163  00000-0  10312-2 0  9999,2 51750  53.2152 305.8146 0001245 110.6627 249.4499 15.08843504 54323,6917.87,95.437,540.596,538.873,0.0
51750.0,STARLINK-3505,PAYLOAD,2023-02-11 23:47:46,15.0884966,0.0001273,53.2143,304.6256,93.0719,267.0418,0.00053744,8.278e-05,0.0,0 STARLINK-3505,1 51750U 22016AN  23042.99150950  .00008278  00000-0  53744-3 0  9999,2 51750  53.2143 304.6256 0001273  93.0719 267.0418 15.08849660 55483,6917.851,95.437,540.597,538.835,0.0
51750.0,STARLINK-3505,PAYLOAD,2023-02-12 10:55:29,15.08812808,0.0002635,53.2136,302.5414,98.7474,261.3817,-0.00036137,-6.031e-05,0.0,0 STARLINK-3505,1 51750U 22016AN  23043.45520366 -.00006031  00000-0 -36137-3 0  9997,2 51750  53.2136 302.5414 0002635  98.7474 261.3817 15.08812808 55553,6917.964,95.439,541.651,538.006,0.0
51750.0,STARLINK-3505,PAYLOAD,2023-02-13 02:49:22,15.08799973,0.0002837,53.2153,299.5687,83.6887,276.4428,0.00024002,3.53e-05,0.0,0 STARLINK-3505,1 51750U 22016AN  23044.11762539  .00003530  00000-0  24002-3 0  9998,2 51750  53.2153 299.5687 0002837  83.6887 276.4428 15.08799973 55657,6918.003,95.44,541.83,537.905,0.0
51750.0,STARLINK-3505,PAYLOAD,2023-02-13 17:07:50,15.08848726,0.000141,53.214,296.8929,74.1521,285.9626,0.0010843,0.00017015,0.0,0 STARLINK-3505,1 51750U 22016AN  23044.71377773  .00017015  00000-0  10843-2 0  9996,2 51750  53.2140 296.8929 0001410  74.1521 285.9626 15.08848726 55744,6917.854,95.437,540.694,538.743,0.0
51750.0,STARLINK-3505,PAYLOAD,2023-02-14 02:40:08,15.08891997,0.0001339,53.2141,295.1078,74.2295,285.8845,0.0015716,0.00024848,0.0,0 STARLINK-3505,1 51750U 22016AN  23045.11120391  .00024848  00000-0  15716-2 0  9999,2 51750  53.2141 295.1078 0001339  74.2295 285.8845 15.08891997 55808,6917.721,95.434,540.513,538.66,0.0
51750.0,STARLINK-3505,PAYLOAD,2023-02-14 09:01:40,15.08862561,0.0002079,53.2131,293.9162,64.791,295.3298,0.00088742,0.00013872,0.0,0 STARLINK-3505,1 51750U 22016AN  23045.37616647  .00013872  00000-0  88742-3 0  9996,2 51750  53.2131 293.9162 0002079  64.7910 295.3298 15.08862561 55844,6917.811,95.436,541.115,538.238,0.0
51750.0,STARLINK-3505,PAYLOAD,2023-02-14 16:58:36,15.08852353,0.0001595,53.2156,292.434,97.3782,262.7391,0.00050484,7.758e-05,0.0,0 STARLINK-3505,1 51750U 22016AN  23045.70736578  .00007758  00000-0  50484-3 0  9997,2 51750  53.2156 292.4340 0001595  97.3782 262.7391 15.08852353 55899,6917.843,95.437,540.811,538.604,0.0
51750.0,STARLINK-3505,PAYLOAD,2023-02-15 08:52:27,15.08871878,4.29e-05,53.2145,289.4576,22.3152,337.7859,0.0015323,0.00024204,0.0,0 STARLINK-3505,1 51750U 22016AN  23046.36975791  .00024204  00000-0  15323-2 0  9999,2 51750  53.2145 289.4576 0000429  22.3152 337.7859 15.08871878 54870,6917.783,95.436,539.945,539.351,0.0
51750.0,STARLINK-3505,PAYLOAD,2023-02-15 21:35:32,15.08852474,0.000189,53.2186,287.0823,101.2277,258.8928,0.00050151,7.705e-05,0.0,0 STARLINK-3505,1 51750U 22016AN  23046.89968144  .00007705  00000-0  50151-3 0  9997,2 51750  53.2186 287.0823 0001890 101.2277 258.8928 15.08852474 56077,6917.842,95.437,541.015,538.4,0.0
51750.0,STARLINK-3505,PAYLOAD,2023-02-16 08:43:14,15.08847613,0.0001416,53.2136,284.9987,97.3259,262.7894,0.00021949,3.208e-05,0.0,0 STARLINK-3505,1 51750U 22016AN  23047.36336027  .00003208  00000-0  21949-3 0  9996,2 51750  53.2136 284.9987 0001416  97.3259 262.7894 15.08847613 56141,6917.857,95.437,540.702,538.743,0.0
51750.0,STARLINK-3505,PAYLOAD,2023-02-16 21:26:19,15.08830995,0.0001539,53.2158,282.622,105.3224,254.7939,-0.00012868,-2.335e-05,0.0,0 STARLINK-3505,1 51750U 22016AN  23047.89328600 -.00002335  00000-0 -12868-3 0  9994,2 51750  53.2158 282.6220 0001539 105.3224 254.7939 15.08830995 55109,6917.908,95.438,540.838,538.708,0.0
51750.0,STARLINK-3505,PAYLOAD,2023-02-17 00:37:05,15.08845598,0.0001172,53.2141,282.024,101.8792,258.2332,0.0001509,2.115e-05,0.0,0 STARLINK-3505,1 51750U 22016AN  23048.02576207  .00002115  00000-0  15090-3 0  9992,2 51750  53.2141 282.0240 0001172 101.8792 258.2332 15.08845598 56248,6917.863,95.437,540.539,538.918,0.0
51750.0,STARLINK-3505,PAYLOAD,2023-02-17 08:34:02,15.08832326,0.0001297,53.2148,280.5391,108.9981,251.1152,-2.0759e-05,-6.18e-06,0.0,0 STARLINK-3505,1 51750U 22016AN  23048.35696767 -.00000618  00000-0 -20759-4 0  9999,2 51750  53.2148 280.5391 0001297 108.9981 251.1152 15.08832326 56293,6917.904,95.438,540.666,538.872,0.0
51750.0,STARLINK-3505,PAYLOAD,2023-02-17 21:17:07,15.08831591,0.0001232,53.2135,278.1601,99.6627,260.4504,1.2239e-05,-9.3e-07,0.0,0 STARLINK-3505,1 51750U 22016AN  23048.88689312 -.00000093  00000-0  12239-4 0  9995,2 51750  53.2135 278.1601 0001232  99.6627 260.4504 15.08831591 55250,6917.906,95.438,540.623,538.919,0.0
51750.0,STARLINK-3505,PAYLOAD,2023-02-18 14:46:23,15.08819793,0.0001232,53.215,274.8873,108.7659,251.3467,6.8874e-06,-1.78e-06,0.0,0 STARLINK-3505,1 51750U 22016AN  23049.61554442 -.00000178  00000-0  68874-5 0  9993,2 51750  53.2150 274.8873 0001232 108.7659 251.3467 15.08819793 55367,6917.942,95.439,540.659,538.955,0.0
51750.0,STARLINK-3505,PAYLOAD,2023-02-18 21:07:55,15.08820815,0.0001159,53.2147,273.6984,109.9664,250.1453,1.1665e-05,-1.02e-06,0.0,0 STARLINK-3505,1 51750U 22016AN  23049.88050665 -.00000102  00000-0  11665-4 0  9992,2 51750  53.2147 273.6984 0001159 109.9664 250.1453 15.08820815 56528,6917.939,95.439,540.606,539.002,0.0
51750.0,STARLINK-3505,PAYLOAD,2023-02-19 14:37:09,15.08838434,0.0001062,53.2135,270.4268,109.8053,250.3053,0.00028197,4.202e-05,0.0,0 STARLINK-3505,1 51750U 22016AN  23050.60914331  .00004202  00000-0  28197-3 0  9994,2 51750  53.2135 270.4268 0001062 109.8053 250.3053 15.08838434 56635,6917.885,95.438,540.485,539.015,0.0
51750.0,STARLINK-3505,PAYLOAD,2023-02-20 00:09:28,15.08842392,0.0001058,53.2132,268.6414,114.606,245.5042,0.00038192,5.796e-05,0.0,0 STARLINK-3505,1 51750U 22016AN  23051.00658409  .00005796  00000-0  38192-3 0  9995,2 51750  53.2132 268.6414 0001058 114.6060 245.5042 15.08842392 55575,6917.873,95.437,540.47,539.006,0.0
51750.0,STARLINK-3505,PAYLOAD,2023-02-21 00:00:15,15.08863399,0.000105,53.2127,264.1814,109.0439,251.0667,0.00061304,9.488e-05,0.0,0 STARLINK-3505,1 51750U 22016AN  23052.00017547  .00009488  00000-0  61304-3 0  9991,2 51750  53.2127 264.1814 0001050 109.0439 251.0667 15.08863399 56840,6917.809,95.436,540.4,538.947,0.0
51750.0,STARLINK-3505,PAYLOAD,2023-02-21 14:18:42,15.08861488,0.0001111,53.2129,261.505,109.1982,250.913,0.0004057,6.178e-05,0.0,0 STARLINK-3505,1 51750U 22016AN  23052.59633041  .00006178  00000-0  40570-3 0  9993,2 51750  53.2129 261.5050 0001111 109.1982 250.9130 15.08861488 56937,6917.815,95.436,540.448,538.911,0.0
